<?xml version="1.0" encoding="UTF-8"?>
<ndm xmlns:xsi="http://www.w3.org/2001/XMLSchema-instance" xsi:noNamespaceSchemaLocation="https://sanaregistry.org/r/ndmxml_unqualified/ndmxml-2.0.0-master-2.0.xsd">
<omm id="CCSDS_OMM_VERS" version="2.0">
<header><CREATION_DATE/><ORIGINATOR/></header><body><segment><metadata><OBJECT_NAME>KUIPER-00112</OBJECT_NAME><OBJECT_ID>2025-171U</OBJECT_ID><CENTER_NAME>EARTH</CENTER_NAME><REF_FRAME>TEME</REF_FRAME><TIME_SYSTEM>UTC</TIME_SYSTEM><MEAN_ELEMENT_THEORY>SGP4</MEAN_ELEMENT_THEORY></metadata><data><meanElements><EPOCH>2026-01-04T11:49:51.788928</EPOCH><MEAN_MOTION>14.79955077</MEAN_MOTION><ECCENTRICITY>.0008491</ECCENTRICITY><INCLINATION>51.9030</INCLINATION><RA_OF_ASC_NODE>79.4705</RA_OF_ASC_NODE><ARG_OF_PERICENTER>310.1800</ARG_OF_PERICENTER><MEAN_ANOMALY>49.8419</MEAN_ANOMALY></meanElements><tleParameters><EPHEMERIS_TYPE>0</EPHEMERIS_TYPE><CLASSIFICATION_TYPE>U</CLASSIFICATION_TYPE><NORAD_CAT_ID>65150</NORAD_CAT_ID><ELEMENT_SET_NO>999</ELEMENT_SET_NO><REV_AT_EPOCH>2341</REV_AT_EPOCH><BSTAR>.18742E-2</BSTAR><MEAN_MOTION_DOT>.14111E-3</MEAN_MOTION_DOT><MEAN_MOTION_DDOT>0</MEAN_MOTION_DDOT></tleParameters></data></segment></body></omm>
<omm id="CCSDS_OMM_VERS" version="2.0">
<header><CREATION_DATE/><ORIGINATOR/></header><body><segment><metadata><OBJECT_NAME>KUIPER-00114</OBJECT_NAME><OBJECT_ID>2025-171V</OBJECT_ID><CENTER_NAME>EARTH</CENTER_NAME><REF_FRAME>TEME</REF_FRAME><TIME_SYSTEM>UTC</TIME_SYSTEM><MEAN_ELEMENT_THEORY>SGP4</MEAN_ELEMENT_THEORY></metadata><data><meanElements><EPOCH>2026-01-04T12:07:20.087040</EPOCH><MEAN_MOTION>14.79944024</MEAN_MOTION><ECCENTRICITY>.0005284</ECCENTRICITY><INCLINATION>51.8995</INCLINATION><RA_OF_ASC_NODE>99.4285</RA_OF_ASC_NODE><ARG_OF_PERICENTER>251.5931</ARG_OF_PERICENTER><MEAN_ANOMALY>108.4457</MEAN_ANOMALY></meanElements><tleParameters><EPHEMERIS_TYPE>0</EPHEMERIS_TYPE><CLASSIFICATION_TYPE>U</CLASSIFICATION_TYPE><NORAD_CAT_ID>65151</NORAD_CAT_ID><ELEMENT_SET_NO>999</ELEMENT_SET_NO><REV_AT_EPOCH>2313</REV_AT_EPOCH><BSTAR>.10786E-2</BSTAR><MEAN_MOTION_DOT>.8014E-4</MEAN_MOTION_DOT><MEAN_MOTION_DDOT>0</MEAN_MOTION_DDOT></tleParameters></data></segment></body></omm>
<omm id="CCSDS_OMM_VERS" version="2.0">
<header><CREATION_DATE/><ORIGINATOR/></header><body><segment><metadata><OBJECT_NAME>KUIPER-00115</OBJECT_NAME><OBJECT_ID>2025-171W</OBJECT_ID><CENTER_NAME>EARTH</CENTER_NAME><REF_FRAME>TEME</REF_FRAME><TIME_SYSTEM>UTC</TIME_SYSTEM><MEAN_ELEMENT_THEORY>SGP4</MEAN_ELEMENT_THEORY></metadata><data><meanElements><EPOCH>2026-01-04T05:49:53.020128</EPOCH><MEAN_MOTION>14.79938144</MEAN_MOTION><ECCENTRICITY>.0008991</ECCENTRICITY><INCLINATION>51.9019</INCLINATION><RA_OF_ASC_NODE>93.0698</RA_OF_ASC_NODE><ARG_OF_PERICENTER>277.1731</ARG_OF_PERICENTER><MEAN_ANOMALY>82.8209</MEAN_ANOMALY></meanElements><tleParameters><EPHEMERIS_TYPE>0</EPHEMERIS_TYPE><CLASSIFICATION_TYPE>U</CLASSIFICATION_TYPE><NORAD_CAT_ID>65152</NORAD_CAT_ID><ELEMENT_SET_NO>999</ELEMENT_SET_NO><REV_AT_EPOCH>2320</REV_AT_EPOCH><BSTAR>.42783E-3</BSTAR><MEAN_MOTION_DOT>.3042E-4</MEAN_MOTION_DOT><MEAN_MOTION_DDOT>0</MEAN_MOTION_DDOT></tleParameters></data></segment></body></omm>
<omm id="CCSDS_OMM_VERS" version="2.0">
<header><CREATION_DATE/><ORIGINATOR/></header><body><segment><metadata><OBJECT_NAME>KUIPER-00116</OBJECT_NAME><OBJECT_ID>2025-171X</OBJECT_ID><CENTER_NAME>EARTH</CENTER_NAME><REF_FRAME>TEME</REF_FRAME><TIME_SYSTEM>UTC</TIME_SYSTEM><MEAN_ELEMENT_THEORY>SGP4</MEAN_ELEMENT_THEORY></metadata><data><meanElements><EPOCH>2026-01-04T11:22:27.323904</EPOCH><MEAN_MOTION>14.79972380</MEAN_MOTION><ECCENTRICITY>.0009135</ECCENTRICITY><INCLINATION>51.9000</INCLINATION><RA_OF_ASC_NODE>97.0901</RA_OF_ASC_NODE><ARG_OF_PERICENTER>238.6637</ARG_OF_PERICENTER><MEAN_ANOMALY>121.3431</MEAN_ANOMALY></meanElements><tleParameters><EPHEMERIS_TYPE>0</EPHEMERIS_TYPE><CLASSIFICATION_TYPE>U</CLASSIFICATION_TYPE><NORAD_CAT_ID>65153</NORAD_CAT_ID><ELEMENT_SET_NO>999</ELEMENT_SET_NO><REV_AT_EPOCH>2316</REV_AT_EPOCH><BSTAR>.6965E-3</BSTAR><MEAN_MOTION_DOT>.5099E-4</MEAN_MOTION_DOT><MEAN_MOTION_DDOT>0</MEAN_MOTION_DDOT></tleParameters></data></segment></body></omm>
<omm id="CCSDS_OMM_VERS" version="2.0">
<header><CREATION_DATE/><ORIGINATOR/></header><body><segment><metadata><OBJECT_NAME>KUIPER-00118</OBJECT_NAME><OBJECT_ID>2025-171Y</OBJECT_ID><CENTER_NAME>EARTH</CENTER_NAME><REF_FRAME>TEME</REF_FRAME><TIME_SYSTEM>UTC</TIME_SYSTEM><MEAN_ELEMENT_THEORY>SGP4</MEAN_ELEMENT_THEORY></metadata><data><meanElements><EPOCH>2026-01-04T11:18:36.091584</EPOCH><MEAN_MOTION>14.79937053</MEAN_MOTION><ECCENTRICITY>.0000659</ECCENTRICITY><INCLINATION>51.9015</INCLINATION><RA_OF_ASC_NODE>99.5578</RA_OF_ASC_NODE><ARG_OF_PERICENTER>279.2625</ARG_OF_PERICENTER><MEAN_ANOMALY>80.8262</MEAN_ANOMALY></meanElements><tleParameters><EPHEMERIS_TYPE>0</EPHEMERIS_TYPE><CLASSIFICATION_TYPE>U</CLASSIFICATION_TYPE><NORAD_CAT_ID>65154</NORAD_CAT_ID><ELEMENT_SET_NO>999</ELEMENT_SET_NO><REV_AT_EPOCH>2313</REV_AT_EPOCH><BSTAR>-.12178E-2</BSTAR><MEAN_MOTION_DOT>-.9493E-4</MEAN_MOTION_DOT><MEAN_MOTION_DDOT>0</MEAN_MOTION_DDOT></tleParameters></data></segment></body></omm>
<omm id="CCSDS_OMM_VERS" version="2.0">
<header><CREATION_DATE/><ORIGINATOR/></header><body><segment><metadata><OBJECT_NAME>KUIPER-00119</OBJECT_NAME><OBJECT_ID>2025-171Z</OBJECT_ID><CENTER_NAME>EARTH</CENTER_NAME><REF_FRAME>TEME</REF_FRAME><TIME_SYSTEM>UTC</TIME_SYSTEM><MEAN_ELEMENT_THEORY>SGP4</MEAN_ELEMENT_THEORY></metadata><data><meanElements><EPOCH>2026-01-04T10:00:52.385472</EPOCH><MEAN_MOTION>14.79978089</MEAN_MOTION><ECCENTRICITY>.0007443</ECCENTRICITY><INCLINATION>51.9006</INCLINATION><RA_OF_ASC_NODE>87.3807</RA_OF_ASC_NODE><ARG_OF_PERICENTER>272.0052</ARG_OF_PERICENTER><MEAN_ANOMALY>88.0057</MEAN_ANOMALY></meanElements><tleParameters><EPHEMERIS_TYPE>0</EPHEMERIS_TYPE><CLASSIFICATION_TYPE>U</CLASSIFICATION_TYPE><NORAD_CAT_ID>65155</NORAD_CAT_ID><ELEMENT_SET_NO>999</ELEMENT_SET_NO><REV_AT_EPOCH>2329</REV_AT_EPOCH><BSTAR>.98068E-3</BSTAR><MEAN_MOTION_DOT>.7273E-4</MEAN_MOTION_DOT><MEAN_MOTION_DDOT>0</MEAN_MOTION_DDOT></tleParameters></data></segment></body></omm>
<omm id="CCSDS_OMM_VERS" version="2.0">
<header><CREATION_DATE/><ORIGINATOR/></header><body><segment><metadata><OBJECT_NAME>KUIPER-00120</OBJECT_NAME><OBJECT_ID>2025-217A</OBJECT_ID><CENTER_NAME>EARTH</CENTER_NAME><REF_FRAME>TEME</REF_FRAME><TIME_SYSTEM>UTC</TIME_SYSTEM><MEAN_ELEMENT_THEORY>SGP4</MEAN_ELEMENT_THEORY></metadata><data><meanElements><EPOCH>2026-01-04T08:24:48.655296</EPOCH><MEAN_MOTION>14.76573176</MEAN_MOTION><ECCENTRICITY>.000341</ECCENTRICITY><INCLINATION>51.9004</INCLINATION><RA_OF_ASC_NODE>336.5458</RA_OF_ASC_NODE><ARG_OF_PERICENTER>90.8394</ARG_OF_PERICENTER><MEAN_ANOMALY>269.2957</MEAN_ANOMALY></meanElements><tleParameters><EPHEMERIS_TYPE>0</EPHEMERIS_TYPE><CLASSIFICATION_TYPE>U</CLASSIFICATION_TYPE><NORAD_CAT_ID>65762</NORAD_CAT_ID><ELEMENT_SET_NO>999</ELEMENT_SET_NO><REV_AT_EPOCH>1522</REV_AT_EPOCH><BSTAR>.9932E-3</BSTAR><MEAN_MOTION_DOT>.6786E-4</MEAN_MOTION_DOT><MEAN_MOTION_DDOT>0</MEAN_MOTION_DDOT></tleParameters></data></segment></body></omm>
<omm id="CCSDS_OMM_VERS" version="2.0">
<header><CREATION_DATE/><ORIGINATOR/></header><body><segment><metadata><OBJECT_NAME>KUIPER-00132</OBJECT_NAME><OBJECT_ID>2025-217B</OBJECT_ID><CENTER_NAME>EARTH</CENTER_NAME><REF_FRAME>TEME</REF_FRAME><TIME_SYSTEM>UTC</TIME_SYSTEM><MEAN_ELEMENT_THEORY>SGP4</MEAN_ELEMENT_THEORY></metadata><data><meanElements><EPOCH>2026-01-04T06:06:52.068384</EPOCH><MEAN_MOTION>15.37765975</MEAN_MOTION><ECCENTRICITY>.0008415</ECCENTRICITY><INCLINATION>51.8633</INCLINATION><RA_OF_ASC_NODE>315.7995</RA_OF_ASC_NODE><ARG_OF_PERICENTER>92.2459</ARG_OF_PERICENTER><MEAN_ANOMALY>267.9491</MEAN_ANOMALY></meanElements><tleParameters><EPHEMERIS_TYPE>0</EPHEMERIS_TYPE><CLASSIFICATION_TYPE>U</CLASSIFICATION_TYPE><NORAD_CAT_ID>65763</NORAD_CAT_ID><ELEMENT_SET_NO>999</ELEMENT_SET_NO><REV_AT_EPOCH>1550</REV_AT_EPOCH><BSTAR>.12986E-2</BSTAR><MEAN_MOTION_DOT>.48908E-3</MEAN_MOTION_DOT><MEAN_MOTION_DDOT>0</MEAN_MOTION_DDOT></tleParameters></data></segment></body></omm>

</ndm>
