KUIPER-00112            
1 65150U 25171U   26004.49296052  .00014111  00000+0  18742-2 0  9993
2 65150  51.9030  79.4705 0008491 310.1800  49.8419 14.79955077 23413
KUIPER-00114            
1 65151U 25171V   26004.50509360  .00008014  00000+0  10786-2 0  9990
2 65151  51.8995  99.4285 0005284 251.5931 108.4457 14.79944024 23131
KUIPER-00115            
1 65152U 25171W   26004.24297477  .00003042  00000+0  42783-3 0  9994
2 65152  51.9019  93.0698 0008991 277.1731  82.8209 14.79938144 23202
KUIPER-00116            
1 65153U 25171X   26004.47392736  .00005099  00000+0  69650-3 0  9990
2 65153  51.9000  97.0901 0009135 238.6637 121.3431 14.79972380 23163
KUIPER-00118            
1 65154U 25171Y   26004.47125106 -.00009493  00000+0 -12178-2 0  9992
2 65154  51.9015  99.5578 0000659 279.2625  80.8262 14.79937053 23133
KUIPER-00119            
1 65155U 25171Z   26004.41727298  .00007273  00000+0  98068-3 0  9992
2 65155  51.9006  87.3807 0007443 272.0052  88.0057 14.79978089 23290
KUIPER-00120            
1 65762U 25217A   26004.35056314  .00006786  00000+0  99320-3 0  9994
2 65762  51.9004 336.5458 0003410  90.8394 269.2957 14.76573176 15229
KUIPER-00132            
1 65763U 25217B   26004.25476931  .00048908  00000+0  12986-2 0  9999
2 65763  51.8633 315.7995 0008415  92.2459 267.9491 15.37765975 15507
